{"type": "FeatureCollection", "features": [ {"type": "Feature", "properties": {"norad_id": 37326, "name": "COSMOS 2251 DEB", "group": "cosmos-2251-debris", "lat": -71.5853435960341, "lon": -64.81462860071942, "alt_km": 729.8195071008558, "timestamp": "2025-12-02T08:59:33.112483+00:00", "meta": {"OBJECT_NAME": "COSMOS 2251 DEB", "OBJECT_ID": "1993-036BKS", "EPOCH": "2025-11-27T19:17:38.237856", "MEAN_MOTION": 14.61468685, "ECCENTRICITY": 0.00552422, "INCLINATION": 74.0262, "RA_OF_ASC_NODE": 3.2841, "ARG_OF_PERICENTER": 136.8831, "MEAN_ANOMALY": 223.6683, "EPHEMERIS_TYPE": 0, "CLASSIFICATION_TYPE": "U", "NORAD_CAT_ID": 37326, "ELEMENT_SET_NO": 999, "REV_AT_EPOCH": 85265, "BSTAR": 0.00046910947, "MEAN_MOTION_DOT": 2.345e-05, "MEAN_MOTION_DDOT": 0}, "tle": {"line1": "1 37326U 93036BKS 25331.80391479  .00002345  00000+0  46911-3 0  9994", "line2": "2 37326  74.0262   3.2841 0055242 136.8831 223.6683 14.61468685852655"}}, "geometry": {"type": "Point", "coordinates": [-64.81462860071942, -71.5853435960341]}}, {"type": "Feature", "properties": {"norad_id": 37330, "name": "COSMOS 2251 DEB", "group": "cosmos-2251-debris", "lat": -8.828014074476002, "lon": -47.676342956574736, "alt_km": 739.1009470706094, "timestamp": "2025-12-02T08:59:33.112493+00:00", "meta": {"OBJECT_NAME": "COSMOS 2251 DEB", "OBJECT_ID": "1993-036BKW", "EPOCH": "2025-12-01T16:35:02.444064", "MEAN_MOTION": 14.59484724, "ECCENTRICITY": 0.0057521, "INCLINATION": 74.017, "RA_OF_ASC_NODE": 316.1795, "ARG_OF_PERICENTER": 167.7697, "MEAN_ANOMALY": 192.4881, "EPHEMERIS_TYPE": 0, "CLASSIFICATION_TYPE": "U", "NORAD_CAT_ID": 37330, "ELEMENT_SET_NO": 999, "REV_AT_EPOCH": 86207, "BSTAR": 0.00032462, "MEAN_MOTION_DOT": 1.545e-05, "MEAN_MOTION_DDOT": 0}, "tle": {"line1": "1 37330U 93036BKW 25335.69100051  .00001545  00000+0  32462-3 0  9991", "line2": "2 37330  74.0170 316.1795 0057521 167.7697 192.4881 14.59484724862076"}}, "geometry": {"type": "Point", "coordinates": [-47.676342956574736, -8.828014074476002]}}, {"type": "Feature", "properties": {"norad_id": 37331, "name": "COSMOS 2251 DEB", "group": "cosmos-2251-debris", "lat": -49.92865390079688, "lon": 66.98272141579544, "alt_km": 818.2466061100158, "timestamp": "2025-12-02T08:59:33.112503+00:00", "meta": {"OBJECT_NAME": "COSMOS 2251 DEB", "OBJECT_ID": "1993-036BKX", "EPOCH": "2025-12-01T01:26:56.105376", "MEAN_MOTION": 14.34963315, "ECCENTRICITY": 0.0055446, "INCLINATION": 74.0748, "RA_OF_ASC_NODE": 89.2257, "ARG_OF_PERICENTER": 107.2854, "MEAN_ANOMALY": 253.4376, "EPHEMERIS_TYPE": 0, "CLASSIFICATION_TYPE": "U", "NORAD_CAT_ID": 37331, "ELEMENT_SET_NO": 999, "REV_AT_EPOCH": 84592, "BSTAR": 0.00070853607, "MEAN_MOTION_DOT": 2.027e-05, "MEAN_MOTION_DDOT": 0}, "tle": {"line1": "1 37331U 93036BKX 25335.06037159  .00002027  00000+0  70854-3 0  9994", "line2": "2 37331  74.0748  89.2257 0055446 107.2854 253.4376 14.34963315845920"}}, "geometry": {"type": "Point", "coordinates": [66.98272141579544, -49.92865390079688]}}, {"type": "Feature", "properties": {"norad_id": 37336, "name": "COSMOS 2251 DEB", "group": "cosmos-2251-debris", "lat": 10.7758645512447, "lon": -6.7404628048581, "alt_km": 773.3307095895298, "timestamp": "2025-12-02T08:59:33.112513+00:00", "meta": {"OBJECT_NAME": "COSMOS 2251 DEB", "OBJECT_ID": "1993-036BLC", "EPOCH": "2025-12-01T07:48:14.136768", "MEAN_MOTION": 14.32750931, "ECCENTRICITY": 0.00286304, "INCLINATION": 74.0414, "RA_OF_ASC_NODE": 352.0528, "ARG_OF_PERICENTER": 73.4193, "MEAN_ANOMALY": 287.0099, "EPHEMERIS_TYPE": 0, "CLASSIFICATION_TYPE": "U", "NORAD_CAT_ID": 37336, "ELEMENT_SET_NO": 999, "REV_AT_EPOCH": 64956, "BSTAR": 8.422431e-05, "MEAN_MOTION_DOT": 2.05e-06, "MEAN_MOTION_DDOT": 0}, "tle": {"line1": "1 37336U 93036BLC 25335.32516362  .00000205  00000+0  84224-4 0  9999", "line2": "2 37336  74.0414 352.0528 0028630  73.4193 287.0099 14.32750931649565"}}, "geometry": {"type": "Point", "coordinates": [-6.7404628048581, 10.7758645512447]}}, {"type": "Feature", "properties": {"norad_id": 37340, "name": "COSMOS 2251 DEB", "group": "cosmos-2251-debris", "lat": 69.43206155988003, "lon": -14.01138554934933, "alt_km": 752.587249508334, "timestamp": "2025-12-02T08:59:33.112523+00:00", "meta": {"OBJECT_NAME": "COSMOS 2251 DEB", "OBJECT_ID": "1993-036BLG", "EPOCH": "2025-12-01T05:54:08.396928", "MEAN_MOTION": 14.3689951, "ECCENTRICITY": 0.0017334, "INCLINATION": 74.0257, "RA_OF_ASC_NODE": 298.3019, "ARG_OF_PERICENTER": 36.3032, "MEAN_ANOMALY": 323.9293, "EPHEMERIS_TYPE": 0, "CLASSIFICATION_TYPE": "U", "NORAD_CAT_ID": 37340, "ELEMENT_SET_NO": 999, "REV_AT_EPOCH": 83902, "BSTAR": 0.00025196, "MEAN_MOTION_DOT": 7.2e-06, "MEAN_MOTION_DDOT": 0}, "tle": {"line1": "1 37340U 93036BLG 25335.24593052  .00000720  00000+0  25196-3 0  9990", "line2": "2 37340  74.0257 298.3019 0017334  36.3032 323.9293 14.36899510839020"}}, "geometry": {"type": "Point", "coordinates": [-14.01138554934933, 69.43206155988003]}}, {"type": "Feature", "properties": {"norad_id": 37483, "name": "COSMOS 2251 DEB", "group": "cosmos-2251-debris", "lat": -55.41838599818795, "lon": 138.02919102271989, "alt_km": 730.9252750602345, "timestamp": "2025-12-02T08:59:33.112533+00:00", "meta": {"OBJECT_NAME": "COSMOS 2251 DEB", "OBJECT_ID": "1993-036BLL", "EPOCH": "2025-11-29T19:43:16.041216", "MEAN_MOTION": 14.43525894, "ECCENTRICITY": 0.00924841, "INCLINATION": 73.9722, "RA_OF_ASC_NODE": 167.4348, "ARG_OF_PERICENTER": 16.8893, "MEAN_ANOMALY": 343.5306, "EPHEMERIS_TYPE": 0, "CLASSIFICATION_TYPE": "U", "NORAD_CAT_ID": 37483, "ELEMENT_SET_NO": 999, "REV_AT_EPOCH": 65093, "BSTAR": 0.00019069876, "MEAN_MOTION_DOT": 6.51e-06, "MEAN_MOTION_DDOT": 0}, "tle": {"line1": "1 37483U 93036BLL 25333.82171344  .00000651  00000+0  19070-3 0  9993", "line2": "2 37483  73.9722 167.4348 0092484  16.8893 343.5306 14.43525894650934"}}, "geometry": {"type": "Point", "coordinates": [138.02919102271989, -55.41838599818795]}}, {"type": "Feature", "properties": {"norad_id": 37484, "name": "COSMOS 2251 DEB", "group": "cosmos-2251-debris", "lat": -69.71935378158176, "lon": 99.6627672010291, "alt_km": 731.2032766638431, "timestamp": "2025-12-02T08:59:33.112543+00:00", "meta": {"OBJECT_NAME": "COSMOS 2251 DEB", "OBJECT_ID": "1993-036BLM", "EPOCH": "2025-12-01T23:33:59.283360", "MEAN_MOTION": 14.41705464, "ECCENTRICITY": 0.0040323, "INCLINATION": 73.8236, "RA_OF_ASC_NODE": 228.6314, "ARG_OF_PERICENTER": 264.9502, "MEAN_ANOMALY": 115.0573, "EPHEMERIS_TYPE": 0, "CLASSIFICATION_TYPE": "U", "NORAD_CAT_ID": 37484, "ELEMENT_SET_NO": 999, "REV_AT_EPOCH": 65224, "BSTAR": 0.00080476, "MEAN_MOTION_DOT": 2.622e-05, "MEAN_MOTION_DDOT": 0}, "tle": {"line1": "1 37484U 93036BLM 25335.98193615  .00002622  00000+0  80476-3 0  9996", "line2": "2 37484  73.8236 228.6314 0040323 264.9502 115.0573 14.41705464652240"}}, "geometry": {"type": "Point", "coordinates": [99.6627672010291, -69.71935378158176]}}, {"type": "Feature", "properties": {"norad_id": 37486, "name": "COSMOS 2251 DEB", "group": "cosmos-2251-debris", "lat": 37.45988106604127, "lon": -59.629054756843615, "alt_km": 965.586784412736, "timestamp": "2025-12-02T08:59:33.112554+00:00", "meta": {"OBJECT_NAME": "COSMOS 2251 DEB", "OBJECT_ID": "1993-036BLP", "EPOCH": "2025-12-01T17:07:10.517088", "MEAN_MOTION": 14.13177303, "ECCENTRICITY": 0.0229001, "INCLINATION": 73.6881, "RA_OF_ASC_NODE": 134.5321, "ARG_OF_PERICENTER": 4.4169, "MEAN_ANOMALY": 10.9696, "EPHEMERIS_TYPE": 0, "CLASSIFICATION_TYPE": "U", "NORAD_CAT_ID": 37486, "ELEMENT_SET_NO": 999, "REV_AT_EPOCH": 63214, "BSTAR": 0.0017628, "MEAN_MOTION_DOT": 4.208e-05, "MEAN_MOTION_DDOT": 0}, "tle": {"line1": "1 37486U 93036BLP 25335.71331617  .00004208  00000+0  17628-2 0  9995", "line2": "2 37486  73.6881 134.5321 0229001   4.4169  10.9696 14.13177303632147"}}, "geometry": {"type": "Point", "coordinates": [-59.629054756843615, 37.45988106604127]}}, {"type": "Feature", "properties": {"norad_id": 37487, "name": "COSMOS 2251 DEB", "group": "cosmos-2251-debris", "lat": -55.34398820707316, "lon": 57.380697011943774, "alt_km": 652.6255477914428, "timestamp": "2025-12-02T08:59:33.112564+00:00", "meta": {"OBJECT_NAME": "COSMOS 2251 DEB", "OBJECT_ID": "1993-036BLQ", "EPOCH": "2025-12-01T23:48:28.965024", "MEAN_MOTION": 14.80278568, "ECCENTRICITY": 0.0025194, "INCLINATION": 73.9034, "RA_OF_ASC_NODE": 213.4502, "ARG_OF_PERICENTER": 53.563, "MEAN_ANOMALY": 306.7863, "EPHEMERIS_TYPE": 0, "CLASSIFICATION_TYPE": "U", "NORAD_CAT_ID": 37487, "ELEMENT_SET_NO": 999, "REV_AT_EPOCH": 81086, "BSTAR": 0.0032386, "MEAN_MOTION_DOT": 0.00024856, "MEAN_MOTION_DDOT": 0}, "tle": {"line1": "1 37487U 93036BLQ 25335.99200191  .00024856  00000+0  32386-2 0  9997", "line2": "2 37487  73.9034 213.4502 0025194  53.5630 306.7863 14.80278568810862"}}, "geometry": {"type": "Point", "coordinates": [57.380697011943774, -55.34398820707316]}}, {"type": "Feature", "properties": {"norad_id": 37491, "name": "COSMOS 2251 DEB", "group": "cosmos-2251-debris", "lat": -28.065311169032896, "lon": -77.38421314425005, "alt_km": 815.419942529018, "timestamp": "2025-12-02T08:59:33.112574+00:00", "meta": {"OBJECT_NAME": "COSMOS 2251 DEB", "OBJECT_ID": "1993-036BLU", "EPOCH": "2025-12-01T13:55:34.044096", "MEAN_MOTION": 13.75223452, "ECCENTRICITY": 0.03181876, "INCLINATION": 73.9059, "RA_OF_ASC_NODE": 292.8015, "ARG_OF_PERICENTER": 287.8478, "MEAN_ANOMALY": 68.8175, "EPHEMERIS_TYPE": 0, "CLASSIFICATION_TYPE": "U", "NORAD_CAT_ID": 37491, "ELEMENT_SET_NO": 999, "REV_AT_EPOCH": 55593, "BSTAR": 0.0015718852, "MEAN_MOTION_DOT": 2.153e-05, "MEAN_MOTION_DDOT": 0}, "tle": {"line1": "1 37491U 93036BLU 25335.58025514  .00002153  00000+0  15719-2 0  9998", "line2": "2 37491  73.9059 292.8015 0318187 287.8478  68.8175 13.75223452555934"}}, "geometry": {"type": "Point", "coordinates": [-77.38421314425005, -28.065311169032896]}}]}